[
    {
        "Altitude(m)": 553763.0407514208,
        "Argument of Periapsis(deg)": 0.033114955553567506,
        "Eccentricity": 0.0,
        "Inclination(deg)": 53.0,
        "Latitude(deg)": 4.636672993858778,
        "Longitude(deg)": 62.52772612905012,
        "Mean Anomaly(deg)": -185.90553566211207,
        "RAAN(deg)": 349.9507168426401,
        "Satellite Name": "Starlink Shell 1 1547",
        "Satellite Number": 1547,
        "Semi-Major Axis(m)": 6931778.249405717,
        "Time(s)": 950
    },
    {
        "Altitude(m)": 553803.9177397211,
        "Argument of Periapsis(deg)": 0.03346353403307874,
        "Eccentricity": 0.0,
        "Inclination(deg)": 53.0,
        "Latitude(deg)": 4.133521879201387,
        "Longitude(deg)": 62.86535105871002,
        "Mean Anomaly(deg)": -185.27870445855532,
        "RAAN(deg)": 349.9501980725626,
        "Satellite Name": "Starlink Shell 1 1547",
        "Satellite Number": 1547,
        "Semi-Major Axis(m)": 6931778.249405717,
        "Time(s)": 960
    },
    {
        "Altitude(m)": 553847.6108685522,
        "Argument of Periapsis(deg)": 0.03381211251258998,
        "Eccentricity": 0.0,
        "Inclination(deg)": 53.0,
        "Latitude(deg)": 3.6301912729636743,
        "Longitude(deg)": 63.202492942329705,
        "Mean Anomaly(deg)": -184.65187325499863,
        "RAAN(deg)": 349.94967930248515,
        "Satellite Name": "Starlink Shell 1 1547",
        "Satellite Number": 1547,
        "Semi-Major Axis(m)": 6931778.249405717,
        "Time(s)": 970
    },
    {
        "Altitude(m)": 553894.1225720741,
        "Argument of Periapsis(deg)": 0.034160690992101214,
        "Eccentricity": 0.0,
        "Inclination(deg)": 53.0,
        "Latitude(deg)": 3.1267044452311143,
        "Longitude(deg)": 63.53921009736467,
        "Mean Anomaly(deg)": -184.02504205144197,
        "RAAN(deg)": 349.9491605324077,
        "Satellite Name": "Starlink Shell 1 1547",
        "Satellite Number": 1547,
        "Semi-Major Axis(m)": 6931778.249405717,
        "Time(s)": 980
    },
    {
        "Altitude(m)": 553943.4539382547,
        "Argument of Periapsis(deg)": 0.034509269471612446,
        "Eccentricity": 0.0,
        "Inclination(deg)": 53.0,
        "Latitude(deg)": 2.623084577402055,
        "Longitude(deg)": 63.87556115751905,
        "Mean Anomaly(deg)": -183.39821084788514,
        "RAAN(deg)": 349.9486417623302,
        "Satellite Name": "Starlink Shell 1 1547",
        "Satellite Number": 1547,
        "Semi-Major Axis(m)": 6931778.249405717,
        "Time(s)": 990
    }
]